[{"OBJECT_NAME":"QIANFAN-7","OBJECT_ID":"2024-140G","EPOCH":"2026-03-09T22:22:28.116768","MEAN_MOTION":14.27774901,"ECCENTRICITY":0.00169421,"INCLINATION":88.9727,"RA_OF_ASC_NODE":283.4803,"ARG_OF_PERICENTER":110.6267,"MEAN_ANOMALY":249.6747,"EPHEMERIS_TYPE":0,"CLASSIFICATION_TYPE":"U","NORAD_CAT_ID":60385,"ELEMENT_SET_NO":999,"REV_AT_EPOCH":8283,"BSTAR":0.00011108135,"MEAN_MOTION_DOT":2.89e-6,"MEAN_MOTION_DDOT":0},{"OBJECT_NAME":"FENGYUN 1C DEB","OBJECT_ID":"1999-025ABH","EPOCH":"2026-03-09T18:52:44.925312","MEAN_MOTION":14.35130025,"ECCENTRICITY":0.00574154,"INCLINATION":98.8018,"RA_OF_ASC_NODE":172.145,"ARG_OF_PERICENTER":129.0512,"MEAN_ANOMALY":358.5061,"EPHEMERIS_TYPE":0,"CLASSIFICATION_TYPE":"U","NORAD_CAT_ID":30346,"ELEMENT_SET_NO":999,"REV_AT_EPOCH":98661,"BSTAR":0.0022980251,"MEAN_MOTION_DOT":6.646e-5,"MEAN_MOTION_DDOT":0}]
